#Pass ID: 20250118_014553_METEOR-M2 4
#Satellite: METEOR-M2 4
#Configuration: METEOR-M2 4
#Start time: 2025-01-18 01:45:58.015669

#LorettStation: 1.0.0 05.05.2024
#Station: Regia
#Location: 37.494653 lon 55.929028 lat
#TLE: 1 59051U 24039A   25017.49009743  .00000083  00000+0  56697-4 0  9996
#TLE: 2 59051  98.6298 340.4480 0006287 216.7082 143.3666 14.22325771 45952

#Time	Az	El	Level	SNR
#Closed at: 2025-01-18 01:45:53.017222